IRIDIUM 106             
1 41917U 17003A   26191.11909696  .00000008  00000+0 -42644-5 0  9996
2 41917  86.3948  78.9684 0002162  94.1879 265.9564 14.34218161496493
IRIDIUM 103             
1 41918U 17003B   26190.61803505 -.00000009  00000+0 -10184-4 0  9998
2 41918  86.3944  79.0775 0001877  81.1953 278.9455 14.34217288496441
IRIDIUM 109             
1 41919U 17003C   26191.60113431 -.00000012  00000+0 -11506-4 0  9994
2 41919  86.3945  78.7261 0002034  83.3246 276.8181 14.34217448496557
IRIDIUM 102             
1 41920U 17003D   26191.22058260 -.00000032  00000+0 -18358-4 0  9996
2 41920  86.3944  78.8082 0002146  84.9339 275.2102 14.34217037496587
IRIDIUM 105             
1 41921U 17003E   26191.03963891  .00000248  00000+0  81419-4 0  9996
2 41921  86.3941  47.3124 0002114  78.2880 281.8553 14.34216495498419
IRIDIUM 104             
1 41922U 17003F   26191.09372936  .00000092  00000+0  25652-4 0  9991
2 41922  86.3951  78.9051 0002127  79.3795 280.7640 14.34216825496556
IRIDIUM 114             
1 41923U 17003G   26189.77446904  .00000148  00000+0  45678-4 0  9993
2 41923  86.3950  79.4394 0002128  81.8870 278.2568 14.34218004496344
IRIDIUM 108             
1 41924U 17003H   26190.98882462  .00000120  00000+0  35806-4 0  9994
2 41924  86.3939  47.2225 0002256  85.5709 274.5745 14.34216918498375
IRIDIUM 112             
1 41925U 17003J   26191.64552801  .00000122  00000+0  36640-4 0  9999
2 41925  86.3941  78.4973 0002156  81.8094 278.3346 14.34219864496639
IRIDIUM 111             
1 41926U 17003K   26190.79562810  .00000085  00000+0  23285-4 0  9995
2 41926  86.3946  78.9244 0002196  85.1463 274.9983 14.34216994496496
IRIDIUM 113             
1 42803U 17039A   26191.33373856  .00000017  00000+0 -11455-5 0  9993
2 42803  86.3990 312.5038 0002193  91.1544 268.9903 14.34217385474500
IRIDIUM 123             
1 42804U 17039B   26191.37521695  .00000011  00000+0 -30373-5 0  9998
2 42804  86.3985 343.9431 0002142  95.9717 264.1723 14.34217424473273
IRIDIUM 120             
1 42805U 17039C   26191.74601037 -.00000066  00000+0 -30464-4 0  9990
2 42805  86.3975 312.1113 0002181  98.5079 261.6364 14.34216468474553
IRIDIUM 115             
1 42806U 17039D   26191.27507527  .00000144  00000+0  36880-4 0  9991
2 42806  86.4518 312.4389 0002124  98.0258 262.1184 14.43275668477597
IRIDIUM 118             
1 42807U 17039E   26190.70924676  .00000164  00000+0  51472-4 0  9993
2 42807  86.3984 344.2194 0002190  90.8292 269.3155 14.34217734473179
IRIDIUM 117             
1 42808U 17039F   26190.65850336  .00000174  00000+0  54966-4 0  9991
2 42808  86.3984 344.1980 0002123  93.3984 266.7455 14.34216599473198
IRIDIUM 126             
1 42809U 17039G   26191.38156159  .00000163  00000+0  51098-4 0  9996
2 42809  86.3983 343.9478 0001988  89.9377 270.2046 14.34217457473271
IRIDIUM 124             
1 42810U 17039H   26191.20887631  .00000217  00000+0  58612-4 0  9994
2 42810  86.4485 280.7334 0002294  95.9168 264.2294 14.43284504478434
IRIDIUM 128             
1 42811U 17039J   26191.51183638  .00000153  00000+0  47440-4 0  9991
2 42811  86.3962  15.3952 0002243  95.1165 265.0287 14.34216761473329
IRIDIUM 121             
1 42812U 17039K   26190.56336653  .00000000  00000+0 -71652-5 0  9998
2 42812  86.3981 344.3175 0002138  93.0961 267.0479 14.34217645473032
IRIDIUM 133             
1 42955U 17061A   26191.47378012  .00000117  00000+0  34750-4 0  9992
2 42955  86.3963  15.5296 0002184  90.7997 269.3449 14.34216959458116
IRIDIUM 100             
1 42956U 17061B   26190.97905867  .00000007  00000+0 -46114-5 0  9998
2 42956  86.3954  15.6543 0002100  89.7981 270.3455 14.34217614458042
IRIDIUM 122             
1 42957U 17061C   26191.50549012  .00000139  00000+0  42489-4 0  9990
2 42957  86.3964  15.4346 0002104  90.2649 269.8788 14.34216950458128
IRIDIUM 129             
1 42958U 17061D   26191.60063002  .00000097  00000+0  27514-4 0  9997
2 42958  86.3964  15.4624 0002222  83.7056 276.4393 14.34216989458159
IRIDIUM 119             
1 42959U 17061E   26191.49915032  .00000164  00000+0  51462-4 0  9998
2 42959  86.3959  15.4999 0002121  91.2607 268.8832 14.34216830458151
IRIDIUM 107             
1 42960U 17061F   26191.44840831 -.00000077  00000+0 -34649-4 0  9992
2 42960  86.3958  15.5434 0001924  93.7833 266.3583 14.34216798458154
IRIDIUM 132             
1 42961U 17061G   26191.45475107  .00000065  00000+0  16283-4 0  9993
2 42961  86.3964  15.5200 0002193  90.1787 269.9660 14.34216471458154
IRIDIUM 136             
1 42962U 17061H   26191.48646687  .00000067  00000+0  16712-4 0  9999
2 42962  86.3964  15.5132 0002247  90.4327 269.7126 14.34217010458179
IRIDIUM 139             
1 42963U 17061J   26191.63234701  .00000136  00000+0  41550-4 0  9992
2 42963  86.3965  15.5147 0002236  92.0305 268.1147 14.34217120458201
IRIDIUM 125             
1 42964U 17061K   26191.61966235  .00000041  00000+0  74077-5 0  9991
2 42964  86.3966  15.5815 0001669  87.6904 272.4483 14.34217210458211
