OBJECT_NAME,OBJECT_ID,EPOCH,MEAN_MOTION,ECCENTRICITY,INCLINATION,RA_OF_ASC_NODE,ARG_OF_PERICENTER,MEAN_ANOMALY,EPHEMERIS_TYPE,CLASSIFICATION_TYPE,NORAD_CAT_ID,ELEMENT_SET_NO,REV_AT_EPOCH,BSTAR,MEAN_MOTION_DOT,MEAN_MOTION_DDOT
IRIDIUM 106,2017-003A,2026-07-10T02:51:29.977344,14.34218161,.00021626,86.3948,78.9684,94.1879,265.9564,0,U,41917,999,49649,-.426443E-5,.8E-7,0
IRIDIUM 103,2017-003B,2026-07-09T14:49:58.228320,14.34217288,.00018778,86.3944,79.0775,81.1953,278.9455,0,U,41918,999,49644,-.10183749E-4,-.9E-7,0
IRIDIUM 109,2017-003C,2026-07-10T14:25:38.004384,14.34217448,.0002034,86.3945,78.7261,83.3246,276.8181,0,U,41919,999,49655,-.11506E-4,-.12E-6,0
IRIDIUM 102,2017-003D,2026-07-10T05:17:38.336640,14.34217037,.0002146,86.3944,78.8082,84.9339,275.2102,0,U,41920,999,49658,-.18358062E-4,-.32E-6,0
IRIDIUM 105,2017-003E,2026-07-10T00:57:04.801824,14.34216495,.00021144,86.3941,47.3124,78.2880,281.8553,0,U,41921,999,49841,.81418956E-4,.248E-5,0
IRIDIUM 104,2017-003F,2026-07-10T02:14:58.216704,14.34216825,.00021278,86.3951,78.9051,79.3795,280.7640,0,U,41922,999,49655,.25652082E-4,.92E-6,0
IRIDIUM 114,2017-003G,2026-07-08T18:35:14.125056,14.34218004,.00021288,86.3950,79.4394,81.8870,278.2568,0,U,41923,999,49634,.45678157E-4,.148E-5,0
IRIDIUM 108,2017-003H,2026-07-09T23:43:54.447168,14.34216918,.0002256,86.3939,47.2225,85.5709,274.5745,0,U,41924,999,49837,.35806166E-4,.12E-5,0
IRIDIUM 112,2017-003J,2026-07-10T15:29:33.620064,14.34219864,.0002156,86.3941,78.4973,81.8094,278.3346,0,U,41925,999,49663,.3664E-4,.122E-5,0
IRIDIUM 111,2017-003K,2026-07-09T19:05:42.267840,14.34216994,.00021961,86.3946,78.9244,85.1463,274.9983,0,U,41926,999,49649,.23284601E-4,.85E-6,0
IRIDIUM 113,2017-039A,2026-07-10T08:00:35.011584,14.34217385,.00021933,86.3990,312.5038,91.1544,268.9903,0,U,42803,999,47450,-.1145524E-5,.17E-6,0
IRIDIUM 123,2017-039B,2026-07-10T09:00:18.744480,14.34217424,.00021423,86.3985,343.9431,95.9717,264.1723,0,U,42804,999,47327,-.3037348E-5,.11E-6,0
IRIDIUM 120,2017-039C,2026-07-10T17:54:15.295968,14.34216468,.0002181,86.3975,312.1113,98.5079,261.6364,0,U,42805,999,47455,-.30464E-4,-.66E-6,0
IRIDIUM 115,2017-039D,2026-07-10T06:36:06.503328,14.43275668,.00021248,86.4518,312.4389,98.0258,262.1184,0,U,42806,999,47759,.36880437E-4,.144E-5,0
IRIDIUM 118,2017-039E,2026-07-09T17:01:18.920064,14.34217734,.00021909,86.3984,344.2194,90.8292,269.3155,0,U,42807,999,47317,.51472103E-4,.164E-5,0
IRIDIUM 117,2017-039F,2026-07-09T15:48:14.690304,14.34216599,.00021237,86.3984,344.1980,93.3984,266.7455,0,U,42808,999,47319,.54966094E-4,.174E-5,0
IRIDIUM 126,2017-039G,2026-07-10T09:09:26.921376,14.34217457,.0001988,86.3983,343.9478,89.9377,270.2046,0,U,42809,999,47327,.51098E-4,.163E-5,0
IRIDIUM 124,2017-039H,2026-07-10T05:00:46.913184,14.43284504,.00022946,86.4485,280.7334,95.9168,264.2294,0,U,42810,999,47843,.58611949E-4,.217E-5,0
IRIDIUM 128,2017-039J,2026-07-10T12:17:02.663232,14.34216761,.00022435,86.3962,15.3952,95.1165,265.0287,0,U,42811,999,47332,.47439966E-4,.153E-5,0
IRIDIUM 121,2017-039K,2026-07-09T13:31:14.868192,14.34217645,.00021384,86.3981,344.3175,93.0961,267.0479,0,U,42812,999,47303,-.7165193E-5,0,0
IRIDIUM 133,2017-061A,2026-07-10T11:22:14.602368,14.34216959,.00021846,86.3963,15.5296,90.7997,269.3449,0,U,42955,999,45811,.34749692E-4,.117E-5,0
IRIDIUM 100,2017-061B,2026-07-09T23:29:50.669088,14.34217614,.00021001,86.3954,15.6543,89.7981,270.3455,0,U,42956,999,45804,-.4611386E-5,.7E-7,0
IRIDIUM 122,2017-061C,2026-07-10T12:07:54.346368,14.34216950,.0002104,86.3964,15.4346,90.2649,269.8788,0,U,42957,999,45812,.42489E-4,.139E-5,0
IRIDIUM 129,2017-061D,2026-07-10T14:24:54.433728,14.34216989,.0002222,86.3964,15.4624,83.7056,276.4393,0,U,42958,999,45815,.27514E-4,.97E-6,0
IRIDIUM 119,2017-061E,2026-07-10T11:58:46.587648,14.34216830,.00021212,86.3959,15.4999,91.2607,268.8832,0,U,42959,999,45815,.51461852E-4,.164E-5,0
IRIDIUM 107,2017-061F,2026-07-10T10:45:42.477984,14.34216798,.00019247,86.3958,15.5434,93.7833,266.3583,0,U,42960,999,45815,-.34649211E-4,-.77E-6,0
IRIDIUM 132,2017-061G,2026-07-10T10:54:50.492448,14.34216471,.00021931,86.3964,15.5200,90.1787,269.9660,0,U,42961,999,45815,.16283064E-4,.65E-6,0
IRIDIUM 136,2017-061H,2026-07-10T11:40:30.737568,14.34217010,.00022474,86.3964,15.5132,90.4327,269.7126,0,U,42962,999,45817,.16712211E-4,.67E-6,0
IRIDIUM 139,2017-061J,2026-07-10T15:10:34.781664,14.34217120,.0002236,86.3965,15.5147,92.0305,268.1147,0,U,42963,999,45820,.4155E-4,.136E-5,0
IRIDIUM 125,2017-061K,2026-07-10T14:52:18.827040,14.34217210,.0001669,86.3966,15.5815,87.6904,272.4483,0,U,42964,999,45821,.74077E-5,.41E-6,0
